{"fetched_at":"2026-03-29T16:36:15Z","count":15609,"tles":[{"name":"STARLINK-11330 [DTC]","line1":"1 62011U 24213D   26087.86391981  .00121515  00000+0  99100-3 0  9996","line2":"2 62011  53.1571 306.9650 0000747  67.9302 292.1795 15.69764095 77920","category":"Starlink"}]}