{
  "norad_id": 62011,
  "name": "STARLINK-11330 [DTC]",
  "history": [
    {
      "epoch": "2026-03-28T20:44:02.671584Z",
      "apogee_km": 360.07532991773587,
      "perigee_km": 359.06858144557737,
      "latitude_deg": -1.1671119644380653e-05,
      "longitude_deg": 169.67560557125918,
      "height_km": 360.29672457415444,
      "semi_major_axis_km": 6737.708955681656,
      "eccentricity": 7.471e-05,
      "inclination_deg": 53.1571,
      "raan_deg": 306.965,
      "arg_perigee_deg": 67.9302,
      "mean_anomaly_deg": 292.1795,
      "mean_motion_rev_day": 15.69764095
    }
  ]
}